FENGYUN 1C DEB          
1 31542U 99025BYH 26063.10672464  .00003058  00000+0  13555-2 0  9993
2 31542  98.7221 121.3986 0044383 332.8277  27.0579 14.23290477970971
FENGYUN 1C DEB          
1 31544U 99025BYK 26063.08762884  .00001471  00000+0  78511-3 0  9999
2 31544  98.8179 118.3804 0032084  41.5227 318.8375 14.14579541969071
FENGYUN 1C DEB          
1 31546U 99025BYM 26063.11553983  .00003979  00000+0  19288-2 0  9993
2 31546  98.2340 131.2677 0143033 260.7476  97.7498 14.13694944959383
FENGYUN 1C DEB          
1 31547U 99025BYN 26063.08152329  .00003699  00000+0  16194-2 0  9991
2 31547  99.0803 114.4543 0051380  22.7087 337.6347 14.23658425651742
FENGYUN 1C DEB          
1 31550U 99025BYR 26059.44897768  .00003342  00000+0  85577-3 0  9990
2 31550  98.3155  61.7396 0191155  38.8171 322.6572 14.40616226665735
FENGYUN 1C DEB          
1 31552U 99025BYT 26061.32216278  .00017373  00000+0  44466-2 0  9993
2 31552  98.6189 189.6065 0087235 142.6253 218.1051 14.48152490970273
FENGYUN 1C DEB          
1 31553U 99025BYU 26063.15680351  .00005426  00000+0  20691-2 0  9994
2 31553  98.9954 125.7309 0030091 217.9283 167.2347 14.30993587970741
FENGYUN 1C DEB          
1 31554U 99025BYV 26062.61866498  .00020616  00000+0  48326-2 0  9996
2 31554  98.9071 206.6077 0037535 139.7657 220.6326 14.54103182660319
FENGYUN 1C DEB          
1 31555U 99025BYW 26061.84196006  .00011331  00000+0  27877-2 0  9994
2 31555  99.1108  26.7207 0152381 319.8029  39.1969 14.45614696977203
FENGYUN 1C DEB          
1 31558U 99025BYZ 26063.19610943  .00001565  00000+0  40473-3 0  9994
2 31558  98.7858 325.6160 0211953  20.9176 130.7068 14.38873635986060
FENGYUN 1C DEB          
1 31559U 99025BZA 26062.87429530  .00013391  00000+0  24484-2 0  9992
2 31559  98.8745  28.1995 0053625 306.5230  80.8606 14.65087367987447
FENGYUN 1C DEB          
1 31560U 99025BZB 26061.88521834  .00000116  00000+0  67276-4 0  9993
2 31560  98.5776 100.7810 0121878  76.0343 285.4353 14.21249302977579
FENGYUN 1C DEB          
1 31561U 99025BZC 26062.93999887  .00000777  00000+0  52129-3 0  9991
2 31561  98.7223  60.5471 0055845 317.1117  72.2017 14.02891351963179
FENGYUN 1C DEB          
1 31562U 99025BZD 26062.88878259  .00003576  00000+0  10690-2 0  9991
2 31562  99.2652 226.3438 0056601  45.9538 314.6291 14.42696577981603
FENGYUN 1C DEB          
1 31563U 99025BZE 26062.69076037  .00008339  00000+0  13949-2 0  9997
2 31563  98.9594 228.4346 0112134 189.3124 170.5999 14.66010108997308
FENGYUN 1C DEB          
1 31565U 99025BZG 26063.16812071  .00012083  00000+0  37250-2 0  9990
2 31565 100.7173 320.5731 0050205 155.8077 204.5477 14.40876734655253
