[{"OBJECT_NAME":"FENGYUN 1C DEB","OBJECT_ID":"1999-025BYH","EPOCH":"2026-03-04T02:33:41.008896","MEAN_MOTION":14.23290477,"ECCENTRICITY":0.0044383,"INCLINATION":98.7221,"RA_OF_ASC_NODE":121.3986,"ARG_OF_PERICENTER":332.8277,"MEAN_ANOMALY":27.0579,"EPHEMERIS_TYPE":0,"CLASSIFICATION_TYPE":"U","NORAD_CAT_ID":31542,"ELEMENT_SET_NO":999,"REV_AT_EPOCH":97097,"BSTAR":0.0013555,"MEAN_MOTION_DOT":3.058e-5,"MEAN_MOTION_DDOT":0},{"OBJECT_NAME":"FENGYUN 1C DEB","OBJECT_ID":"1999-025BYK","EPOCH":"2026-03-04T02:06:11.131776","MEAN_MOTION":14.14579541,"ECCENTRICITY":0.0032084,"INCLINATION":98.8179,"RA_OF_ASC_NODE":118.3804,"ARG_OF_PERICENTER":41.5227,"MEAN_ANOMALY":318.8375,"EPHEMERIS_TYPE":0,"CLASSIFICATION_TYPE":"U","NORAD_CAT_ID":31544,"ELEMENT_SET_NO":999,"REV_AT_EPOCH":96907,"BSTAR":0.00078511,"MEAN_MOTION_DOT":1.471e-5,"MEAN_MOTION_DDOT":0},{"OBJECT_NAME":"FENGYUN 1C DEB","OBJECT_ID":"1999-025BYM","EPOCH":"2026-03-04T02:46:22.641312","MEAN_MOTION":14.13694944,"ECCENTRICITY":0.0143033,"INCLINATION":98.234,"RA_OF_ASC_NODE":131.2677,"ARG_OF_PERICENTER":260.7476,"MEAN_ANOMALY":97.7498,"EPHEMERIS_TYPE":0,"CLASSIFICATION_TYPE":"U","NORAD_CAT_ID":31546,"ELEMENT_SET_NO":999,"REV_AT_EPOCH":95938,"BSTAR":0.0019288,"MEAN_MOTION_DOT":3.979e-5,"MEAN_MOTION_DDOT":0},{"OBJECT_NAME":"FENGYUN 1C DEB","OBJECT_ID":"1999-025BYN","EPOCH":"2026-03-04T01:57:23.612256","MEAN_MOTION":14.23658425,"ECCENTRICITY":0.005138,"INCLINATION":99.0803,"RA_OF_ASC_NODE":114.4543,"ARG_OF_PERICENTER":22.7087,"MEAN_ANOMALY":337.6347,"EPHEMERIS_TYPE":0,"CLASSIFICATION_TYPE":"U","NORAD_CAT_ID":31547,"ELEMENT_SET_NO":999,"REV_AT_EPOCH":65174,"BSTAR":0.0016194,"MEAN_MOTION_DOT":3.699e-5,"MEAN_MOTION_DDOT":0},{"OBJECT_NAME":"FENGYUN 1C DEB","OBJECT_ID":"1999-025BYR","EPOCH":"2026-02-28T10:46:31.671552","MEAN_MOTION":14.40616226,"ECCENTRICITY":0.01911552,"INCLINATION":98.3155,"RA_OF_ASC_NODE":61.7396,"ARG_OF_PERICENTER":38.8171,"MEAN_ANOMALY":322.6572,"EPHEMERIS_TYPE":0,"CLASSIFICATION_TYPE":"U","NORAD_CAT_ID":31550,"ELEMENT_SET_NO":999,"REV_AT_EPOCH":66573,"BSTAR":0.00085576562,"MEAN_MOTION_DOT":3.342e-5,"MEAN_MOTION_DDOT":0},{"OBJECT_NAME":"FENGYUN 1C DEB","OBJECT_ID":"1999-025BYT","EPOCH":"2026-03-02T07:43:54.864192","MEAN_MOTION":14.4815249,"ECCENTRICITY":0.00872356,"INCLINATION":98.6189,"RA_OF_ASC_NODE":189.6065,"ARG_OF_PERICENTER":142.6253,"MEAN_ANOMALY":218.1051,"EPHEMERIS_TYPE":0,"CLASSIFICATION_TYPE":"U","NORAD_CAT_ID":31552,"ELEMENT_SET_NO":999,"REV_AT_EPOCH":97027,"BSTAR":0.004446625,"MEAN_MOTION_DOT":0.00017373,"MEAN_MOTION_DDOT":0},{"OBJECT_NAME":"FENGYUN 1C DEB","OBJECT_ID":"1999-025BYU","EPOCH":"2026-03-04T03:45:47.823264","MEAN_MOTION":14.30993587,"ECCENTRICITY":0.0030091,"INCLINATION":98.9954,"RA_OF_ASC_NODE":125.7309,"ARG_OF_PERICENTER":217.9283,"MEAN_ANOMALY":167.2347,"EPHEMERIS_TYPE":0,"CLASSIFICATION_TYPE":"U","NORAD_CAT_ID":31553,"ELEMENT_SET_NO":999,"REV_AT_EPOCH":97074,"BSTAR":0.0020691,"MEAN_MOTION_DOT":5.426e-5,"MEAN_MOTION_DDOT":0},{"OBJECT_NAME":"FENGYUN 1C DEB","OBJECT_ID":"1999-025BYV","EPOCH":"2026-03-03T14:50:52.654272","MEAN_MOTION":14.54103182,"ECCENTRICITY":0.0037535,"INCLINATION":98.9071,"RA_OF_ASC_NODE":206.6077,"ARG_OF_PERICENTER":139.7657,"MEAN_ANOMALY":220.6326,"EPHEMERIS_TYPE":0,"CLASSIFICATION_TYPE":"U","NORAD_CAT_ID":31554,"ELEMENT_SET_NO":999,"REV_AT_EPOCH":66031,"BSTAR":0.0048326,"MEAN_MOTION_DOT":0.00020616,"MEAN_MOTION_DDOT":0},{"OBJECT_NAME":"FENGYUN 1C DEB","OBJECT_ID":"1999-025BYW","EPOCH":"2026-03-02T20:12:25.349184","MEAN_MOTION":14.45614696,"ECCENTRICITY":0.0152381,"INCLINATION":99.1108,"RA_OF_ASC_NODE":26.7207,"ARG_OF_PERICENTER":319.8029,"MEAN_ANOMALY":39.1969,"EPHEMERIS_TYPE":0,"CLASSIFICATION_TYPE":"U","NORAD_CAT_ID":31555,"ELEMENT_SET_NO":999,"REV_AT_EPOCH":97720,"BSTAR":0.0027876823,"MEAN_MOTION_DOT":0.00011331,"MEAN_MOTION_DDOT":0},{"OBJECT_NAME":"FENGYUN 1C DEB","OBJECT_ID":"1999-025BYZ","EPOCH":"2026-03-04T04:42:23.854752","MEAN_MOTION":14.38873635,"ECCENTRICITY":0.0211953,"INCLINATION":98.7858,"RA_OF_ASC_NODE":325.616,"ARG_OF_PERICENTER":20.9176,"MEAN_ANOMALY":130.7068,"EPHEMERIS_TYPE":0,"CLASSIFICATION_TYPE":"U","NORAD_CAT_ID":31558,"ELEMENT_SET_NO":999,"REV_AT_EPOCH":98606,"BSTAR":0.00040473,"MEAN_MOTION_DOT":1.565e-5,"MEAN_MOTION_DDOT":0},{"OBJECT_NAME":"FENGYUN 1C DEB","OBJECT_ID":"1999-025BZA","EPOCH":"2026-03-03T20:58:59.113920","MEAN_MOTION":14.65087367,"ECCENTRICITY":0.0053625,"INCLINATION":98.8745,"RA_OF_ASC_NODE":28.1995,"ARG_OF_PERICENTER":306.523,"MEAN_ANOMALY":80.8606,"EPHEMERIS_TYPE":0,"CLASSIFICATION_TYPE":"U","NORAD_CAT_ID":31559,"ELEMENT_SET_NO":999,"REV_AT_EPOCH":98744,"BSTAR":0.0024484,"MEAN_MOTION_DOT":0.00013391,"MEAN_MOTION_DDOT":0},{"OBJECT_NAME":"FENGYUN 1C DEB","OBJECT_ID":"1999-025BZB","EPOCH":"2026-03-02T21:14:42.864576","MEAN_MOTION":14.21249302,"ECCENTRICITY":0.0121878,"INCLINATION":98.5776,"RA_OF_ASC_NODE":100.781,"ARG_OF_PERICENTER":76.0343,"MEAN_ANOMALY":285.4353,"EPHEMERIS_TYPE":0,"CLASSIFICATION_TYPE":"U","NORAD_CAT_ID":31560,"ELEMENT_SET_NO":999,"REV_AT_EPOCH":97757,"BSTAR":6.7276e-5,"MEAN_MOTION_DOT":1.16e-6,"MEAN_MOTION_DDOT":0},{"OBJECT_NAME":"FENGYUN 1C DEB","OBJECT_ID":"1999-025BZC","EPOCH":"2026-03-03T22:33:35.902368","MEAN_MOTION":14.02891351,"ECCENTRICITY":0.0055845,"INCLINATION":98.7223,"RA_OF_ASC_NODE":60.5471,"ARG_OF_PERICENTER":317.1117,"MEAN_ANOMALY":72.2017,"EPHEMERIS_TYPE":0,"CLASSIFICATION_TYPE":"U","NORAD_CAT_ID":31561,"ELEMENT_SET_NO":999,"REV_AT_EPOCH":96317,"BSTAR":0.00052129,"MEAN_MOTION_DOT":7.77e-6,"MEAN_MOTION_DDOT":0},{"OBJECT_NAME":"FENGYUN 1C DEB","OBJECT_ID":"1999-025BZD","EPOCH":"2026-03-03T21:19:50.815776","MEAN_MOTION":14.42696577,"ECCENTRICITY":0.0056601,"INCLINATION":99.2652,"RA_OF_ASC_NODE":226.3438,"ARG_OF_PERICENTER":45.9538,"MEAN_ANOMALY":314.6291,"EPHEMERIS_TYPE":0,"CLASSIFICATION_TYPE":"U","NORAD_CAT_ID":31562,"ELEMENT_SET_NO":999,"REV_AT_EPOCH":98160,"BSTAR":0.001069,"MEAN_MOTION_DOT":3.576e-5,"MEAN_MOTION_DDOT":0},{"OBJECT_NAME":"FENGYUN 1C DEB","OBJECT_ID":"1999-025BZE","EPOCH":"2026-03-03T16:34:41.695968","MEAN_MOTION":14.66010108,"ECCENTRICITY":0.01121347,"INCLINATION":98.9594,"RA_OF_ASC_NODE":228.4346,"ARG_OF_PERICENTER":189.3124,"MEAN_ANOMALY":170.5999,"EPHEMERIS_TYPE":0,"CLASSIFICATION_TYPE":"U","NORAD_CAT_ID":31563,"ELEMENT_SET_NO":999,"REV_AT_EPOCH":99730,"BSTAR":0.00139491,"MEAN_MOTION_DOT":8.339e-5,"MEAN_MOTION_DDOT":0},{"OBJECT_NAME":"FENGYUN 1C DEB","OBJECT_ID":"1999-025BZG","EPOCH":"2026-03-04T04:02:05.629344","MEAN_MOTION":14.40876734,"ECCENTRICITY":0.0050205,"INCLINATION":100.7173,"RA_OF_ASC_NODE":320.5731,"ARG_OF_PERICENTER":155.8077,"MEAN_ANOMALY":204.5477,"EPHEMERIS_TYPE":0,"CLASSIFICATION_TYPE":"U","NORAD_CAT_ID":31565,"ELEMENT_SET_NO":999,"REV_AT_EPOCH":65525,"BSTAR":0.003725,"MEAN_MOTION_DOT":0.00012083,"MEAN_MOTION_DDOT":0}]
